FLOCK 4G-33             
1 62685U 25009CE  26194.02471992  .00003908  00000+0  15579-3 0  9998
2 62685  97.3945 273.6030 0004456 223.1989 136.8900 15.25784276 82745
FLOCK 4H-1              
1 66704U 25276AQ  26193.64575236  .00003630  00000+0  16766-3 0  9994
2 66704  97.4175 266.9317 0001787 181.1906 178.9325 15.20832307 34307
FLOCK 4H-2              
1 66705U 25276AR  26194.14617360  .00004480  00000+0  20451-3 0  9996
2 66705  97.4171 267.4721 0001329 157.7274 202.4020 15.21108414 34387
FLOCK 4H-3              
1 66706U 25276AS  26194.00337617  .00004240  00000+0  19870-3 0  9993
2 66706  97.4241 267.2571 0002398 261.5160  98.5804 15.20228134 34343
FLOCK 4H-4              
1 66707U 25276AT  26194.17080777  .00003840  00000+0  18135-3 0  9992
2 66707  97.4223 267.2901 0003050 265.6509  94.4377 15.20019315 34360
FLOCK 4H-5              
1 66708U 25276AU  26194.16444849  .00003610  00000+0  16648-3 0  9998
2 66708  97.4174 267.4634 0001222 135.2061 224.9273 15.20887811 34386
FLOCK 4H-6              
1 66709U 25276AV  26193.74937716  .00004320  00000+0  20032-3 0  9993
2 66709  97.4225 267.0976 0002218 214.0805 146.0289 15.20586674 34314
FLOCK 4H-7              
1 66710U 25276AW  26194.45477648  .00003742  00000+0  17506-3 0  9996
2 66710  97.4184 267.5511 0000752 318.4866  41.6312 15.20365882 34411
FLOCK 4H-8              
1 66711U 25276AX  26194.18254834  .00003750  00000+0  17491-3 0  9999
2 66711  97.4222 267.4316 0001878 283.7881  76.3145 15.20471628 34378
FLOCK 4H-9              
1 66712U 25276AY  26193.73616334  .00004222  00000+0  19481-3 0  9993
2 66712  97.4213 267.0859 0002235 224.9821 135.1234 15.20767374 34319
FLOCK 4H-10             
1 66713U 25276AZ  26194.15505281  .00004574  00000+0  21460-3 0  9999
2 66713  97.4189 267.2107 0002868 266.2366  93.8541 15.20147741 34361
FLOCK 4H-11             
1 66714U 25276BA  26194.51280522  .00007762  00000+0  33006-3 0  9999
2 66714  97.4197 268.1477 0001354 255.8312 104.2774 15.23300120 34455
FLOCK 4H-12             
1 66715U 25276BB  26194.51282124  .00003895  00000+0  17980-3 0  9996
2 66715  97.4188 267.7876 0001694 186.2010 173.9204 15.20801790 34742
FLOCK 4H-13             
1 66716U 25276BC  26194.15457971  .00004817  00000+0  22097-3 0  9991
2 66716  97.4218 267.6071 0001814 144.2920 215.8437 15.20900966 34380
FLOCK 4H-14             
1 66717U 25276BD  26193.78676842  .00004225  00000+0  19172-3 0  9993
2 66717  97.4203 267.2902 0001645 143.2980 216.8368 15.21346896 33583
FLOCK 4H-15             
1 66718U 25276BE  26194.18864470  .00003627  00000+0  17225-3 0  9997
2 66718  97.4218 267.2491 0002688 286.9887  73.1053 15.19867106 34363
