{"fetched_at":"2026-07-13T18:16:33.418Z","source":"https://celestrak.org/NORAD/elements/gp.php?GROUP=planet&FORMAT=JSON","constellation":"superdove","records":[{"OBJECT_NAME":"FLOCK 4G-33","OBJECT_ID":"2025-009CE","EPOCH":"2026-07-13T00:35:35.801088","CLASSIFICATION_TYPE":"U","MEAN_MOTION":15.25784276,"ECCENTRICITY":0.00044569,"INCLINATION":97.3945,"RA_OF_ASC_NODE":273.603,"ARG_OF_PERICENTER":223.1989,"MEAN_ANOMALY":136.89,"EPHEMERIS_TYPE":0,"NORAD_CAT_ID":62685,"ELEMENT_SET_NO":999,"REV_AT_EPOCH":8274,"BSTAR":0.00015578969,"MEAN_MOTION_DOT":0.00003908,"MEAN_MOTION_DDOT":0},{"OBJECT_NAME":"FLOCK 4H-1","OBJECT_ID":"2025-276AQ","EPOCH":"2026-07-12T15:29:53.003904","CLASSIFICATION_TYPE":"U","MEAN_MOTION":15.20832307,"ECCENTRICITY":0.00017876,"INCLINATION":97.4175,"RA_OF_ASC_NODE":266.9317,"ARG_OF_PERICENTER":181.1906,"MEAN_ANOMALY":178.9325,"EPHEMERIS_TYPE":0,"NORAD_CAT_ID":66704,"ELEMENT_SET_NO":999,"REV_AT_EPOCH":3430,"BSTAR":0.00016765611,"MEAN_MOTION_DOT":0.0000363,"MEAN_MOTION_DDOT":0},{"OBJECT_NAME":"FLOCK 4H-2","OBJECT_ID":"2025-276AR","EPOCH":"2026-07-13T03:30:29.399040","CLASSIFICATION_TYPE":"U","MEAN_MOTION":15.21108414,"ECCENTRICITY":0.00013298,"INCLINATION":97.4171,"RA_OF_ASC_NODE":267.4721,"ARG_OF_PERICENTER":157.7274,"MEAN_ANOMALY":202.402,"EPHEMERIS_TYPE":0,"NORAD_CAT_ID":66705,"ELEMENT_SET_NO":999,"REV_AT_EPOCH":3438,"BSTAR":0.00020450524,"MEAN_MOTION_DOT":0.0000448,"MEAN_MOTION_DDOT":0},{"OBJECT_NAME":"FLOCK 4H-3","OBJECT_ID":"2025-276AS","EPOCH":"2026-07-13T00:04:51.701088","CLASSIFICATION_TYPE":"U","MEAN_MOTION":15.20228134,"ECCENTRICITY":0.00023982,"INCLINATION":97.4241,"RA_OF_ASC_NODE":267.2571,"ARG_OF_PERICENTER":261.516,"MEAN_ANOMALY":98.5804,"EPHEMERIS_TYPE":0,"NORAD_CAT_ID":66706,"ELEMENT_SET_NO":999,"REV_AT_EPOCH":3434,"BSTAR":0.00019870165,"MEAN_MOTION_DOT":0.0000424,"MEAN_MOTION_DDOT":0},{"OBJECT_NAME":"FLOCK 4H-4","OBJECT_ID":"2025-276AT","EPOCH":"2026-07-13T04:05:57.791328","CLASSIFICATION_TYPE":"U","MEAN_MOTION":15.20019315,"ECCENTRICITY":0.00030501,"INCLINATION":97.4223,"RA_OF_ASC_NODE":267.2901,"ARG_OF_PERICENTER":265.6509,"MEAN_ANOMALY":94.4377,"EPHEMERIS_TYPE":0,"NORAD_CAT_ID":66707,"ELEMENT_SET_NO":999,"REV_AT_EPOCH":3436,"BSTAR":0.000181355,"MEAN_MOTION_DOT":0.0000384,"MEAN_MOTION_DDOT":0},{"OBJECT_NAME":"FLOCK 4H-5","OBJECT_ID":"2025-276AU","EPOCH":"2026-07-13T03:56:48.349536","CLASSIFICATION_TYPE":"U","MEAN_MOTION":15.20887811,"ECCENTRICITY":0.00012224,"INCLINATION":97.4174,"RA_OF_ASC_NODE":267.4634,"ARG_OF_PERICENTER":135.2061,"MEAN_ANOMALY":224.9273,"EPHEMERIS_TYPE":0,"NORAD_CAT_ID":66708,"ELEMENT_SET_NO":999,"REV_AT_EPOCH":3438,"BSTAR":0.00016647998,"MEAN_MOTION_DOT":0.0000361,"MEAN_MOTION_DDOT":0},{"OBJECT_NAME":"FLOCK 4H-6","OBJECT_ID":"2025-276AV","EPOCH":"2026-07-12T17:59:06.186624","CLASSIFICATION_TYPE":"U","MEAN_MOTION":15.20586674,"ECCENTRICITY":0.00022183,"INCLINATION":97.4225,"RA_OF_ASC_NODE":267.0976,"ARG_OF_PERICENTER":214.0805,"MEAN_ANOMALY":146.0289,"EPHEMERIS_TYPE":0,"NORAD_CAT_ID":66709,"ELEMENT_SET_NO":999,"REV_AT_EPOCH":3431,"BSTAR":0.00020032392,"MEAN_MOTION_DOT":0.0000432,"MEAN_MOTION_DDOT":0},{"OBJECT_NAME":"FLOCK 4H-7","OBJECT_ID":"2025-276AW","EPOCH":"2026-07-13T10:54:52.687872","CLASSIFICATION_TYPE":"U","MEAN_MOTION":15.20365882,"ECCENTRICITY":0.0000752,"INCLINATION":97.4184,"RA_OF_ASC_NODE":267.5511,"ARG_OF_PERICENTER":318.4866,"MEAN_ANOMALY":41.6312,"EPHEMERIS_TYPE":0,"NORAD_CAT_ID":66710,"ELEMENT_SET_NO":999,"REV_AT_EPOCH":3441,"BSTAR":0.00017506,"MEAN_MOTION_DOT":0.00003742,"MEAN_MOTION_DDOT":0},{"OBJECT_NAME":"FLOCK 4H-8","OBJECT_ID":"2025-276AX","EPOCH":"2026-07-13T04:22:52.176576","CLASSIFICATION_TYPE":"U","MEAN_MOTION":15.20471628,"ECCENTRICITY":0.0001878,"INCLINATION":97.4222,"RA_OF_ASC_NODE":267.4316,"ARG_OF_PERICENTER":283.7881,"MEAN_ANOMALY":76.3145,"EPHEMERIS_TYPE":0,"NORAD_CAT_ID":66711,"ELEMENT_SET_NO":999,"REV_AT_EPOCH":3437,"BSTAR":0.00017491,"MEAN_MOTION_DOT":0.0000375,"MEAN_MOTION_DDOT":0},{"OBJECT_NAME":"FLOCK 4H-9","OBJECT_ID":"2025-276AY","EPOCH":"2026-07-12T17:40:04.512576","CLASSIFICATION_TYPE":"U","MEAN_MOTION":15.20767374,"ECCENTRICITY":0.00022351,"INCLINATION":97.4213,"RA_OF_ASC_NODE":267.0859,"ARG_OF_PERICENTER":224.9821,"MEAN_ANOMALY":135.1234,"EPHEMERIS_TYPE":0,"NORAD_CAT_ID":66712,"ELEMENT_SET_NO":999,"REV_AT_EPOCH":3431,"BSTAR":0.00019481174,"MEAN_MOTION_DOT":0.00004222,"MEAN_MOTION_DDOT":0},{"OBJECT_NAME":"FLOCK 4H-10","OBJECT_ID":"2025-276AZ","EPOCH":"2026-07-13T03:43:16.562784","CLASSIFICATION_TYPE":"U","MEAN_MOTION":15.20147741,"ECCENTRICITY":0.00028681,"INCLINATION":97.4189,"RA_OF_ASC_NODE":267.2107,"ARG_OF_PERICENTER":266.2366,"MEAN_ANOMALY":93.8541,"EPHEMERIS_TYPE":0,"NORAD_CAT_ID":66713,"ELEMENT_SET_NO":999,"REV_AT_EPOCH":3436,"BSTAR":0.00021460017,"MEAN_MOTION_DOT":0.00004574,"MEAN_MOTION_DDOT":0},{"OBJECT_NAME":"FLOCK 4H-11","OBJECT_ID":"2025-276BA","EPOCH":"2026-07-13T12:18:26.371008","CLASSIFICATION_TYPE":"U","MEAN_MOTION":15.2330012,"ECCENTRICITY":0.0001354,"INCLINATION":97.4197,"RA_OF_ASC_NODE":268.1477,"ARG_OF_PERICENTER":255.8312,"MEAN_ANOMALY":104.2774,"EPHEMERIS_TYPE":0,"NORAD_CAT_ID":66714,"ELEMENT_SET_NO":999,"REV_AT_EPOCH":3445,"BSTAR":0.00033006,"MEAN_MOTION_DOT":0.00007762,"MEAN_MOTION_DDOT":0},{"OBJECT_NAME":"FLOCK 4H-12","OBJECT_ID":"2025-276BB","EPOCH":"2026-07-13T12:18:27.755136","CLASSIFICATION_TYPE":"U","MEAN_MOTION":15.2080179,"ECCENTRICITY":0.0001694,"INCLINATION":97.4188,"RA_OF_ASC_NODE":267.7876,"ARG_OF_PERICENTER":186.201,"MEAN_ANOMALY":173.9204,"EPHEMERIS_TYPE":0,"NORAD_CAT_ID":66715,"ELEMENT_SET_NO":999,"REV_AT_EPOCH":3474,"BSTAR":0.0001798,"MEAN_MOTION_DOT":0.00003895,"MEAN_MOTION_DDOT":0},{"OBJECT_NAME":"FLOCK 4H-13","OBJECT_ID":"2025-276BC","EPOCH":"2026-07-13T03:42:35.686944","CLASSIFICATION_TYPE":"U","MEAN_MOTION":15.20900966,"ECCENTRICITY":0.00018145,"INCLINATION":97.4218,"RA_OF_ASC_NODE":267.6071,"ARG_OF_PERICENTER":144.292,"MEAN_ANOMALY":215.8437,"EPHEMERIS_TYPE":0,"NORAD_CAT_ID":66716,"ELEMENT_SET_NO":999,"REV_AT_EPOCH":3438,"BSTAR":0.00022097108,"MEAN_MOTION_DOT":0.00004817,"MEAN_MOTION_DDOT":0},{"OBJECT_NAME":"FLOCK 4H-14","OBJECT_ID":"2025-276BD","EPOCH":"2026-07-12T18:52:56.791488","CLASSIFICATION_TYPE":"U","MEAN_MOTION":15.21346896,"ECCENTRICITY":0.00016458,"INCLINATION":97.4203,"RA_OF_ASC_NODE":267.2902,"ARG_OF_PERICENTER":143.298,"MEAN_ANOMALY":216.8368,"EPHEMERIS_TYPE":0,"NORAD_CAT_ID":66717,"ELEMENT_SET_NO":999,"REV_AT_EPOCH":3358,"BSTAR":0.00019172456,"MEAN_MOTION_DOT":0.00004225,"MEAN_MOTION_DDOT":0},{"OBJECT_NAME":"FLOCK 4H-15","OBJECT_ID":"2025-276BE","EPOCH":"2026-07-13T04:31:38.902080","CLASSIFICATION_TYPE":"U","MEAN_MOTION":15.19867106,"ECCENTRICITY":0.0002688,"INCLINATION":97.4218,"RA_OF_ASC_NODE":267.2491,"ARG_OF_PERICENTER":286.9887,"MEAN_ANOMALY":73.1053,"EPHEMERIS_TYPE":0,"NORAD_CAT_ID":66718,"ELEMENT_SET_NO":999,"REV_AT_EPOCH":3436,"BSTAR":0.00017225,"MEAN_MOTION_DOT":0.00003627,"MEAN_MOTION_DDOT":0}]}
